{"type": "FeatureCollection", "features": [ {"type": "Feature", "properties": {"norad_id": 35445, "name": "COSMOS 2251 DEB", "group": "cosmos-2251-debris", "lat": -37.02811619024651, "lon": -87.63881873112503, "alt_km": 633.2637075295752, "timestamp": "2025-12-20T16:47:36.680840+00:00", "meta": {"OBJECT_NAME": "COSMOS 2251 DEB", "OBJECT_ID": "1993-036AKP", "EPOCH": "2025-12-20T02:09:32.474016", "MEAN_MOTION": 14.59298517, "ECCENTRICITY": 0.0143911, "INCLINATION": 74.0379, "RA_OF_ASC_NODE": 285.9917, "ARG_OF_PERICENTER": 11.2111, "MEAN_ANOMALY": 349.2201, "EPHEMERIS_TYPE": 0, "CLASSIFICATION_TYPE": "U", "NORAD_CAT_ID": 35445, "ELEMENT_SET_NO": 999, "REV_AT_EPOCH": 87436, "BSTAR": 0.001392614, "MEAN_MOTION_DOT": 7.582e-05, "MEAN_MOTION_DDOT": 0}, "tle": {"line1": "1 35445U 93036AKP 25354.08995919  .00007582  00000+0  13926-2 0  9995", "line2": "2 35445  74.0379 285.9917 0143911  11.2111 349.2201 14.59298517874360"}}, "geometry": {"type": "Point", "coordinates": [-87.63881873112503, -37.02811619024651]}}, {"type": "Feature", "properties": {"norad_id": 35446, "name": "COSMOS 2251 DEB", "group": "cosmos-2251-debris", "lat": -44.893611435372726, "lon": 139.69014881871112, "alt_km": 768.5917916374028, "timestamp": "2025-12-20T16:47:36.680849+00:00", "meta": {"OBJECT_NAME": "COSMOS 2251 DEB", "OBJECT_ID": "1993-036AKQ", "EPOCH": "2025-12-18T05:59:12.750432", "MEAN_MOTION": 14.54634793, "ECCENTRICITY": 0.00745391, "INCLINATION": 74.0467, "RA_OF_ASC_NODE": 307.7629, "ARG_OF_PERICENTER": 64.3886, "MEAN_ANOMALY": 296.4954, "EPHEMERIS_TYPE": 0, "CLASSIFICATION_TYPE": "U", "NORAD_CAT_ID": 35446, "ELEMENT_SET_NO": 999, "REV_AT_EPOCH": 88088, "BSTAR": 9.8850262e-05, "MEAN_MOTION_DOT": 4.08e-06, "MEAN_MOTION_DDOT": 0}, "tle": {"line1": "1 35446U 93036AKQ 25352.24945313  .00000408  00000+0  98850-4 0  9996", "line2": "2 35446  74.0467 307.7629 0074539  64.3886 296.4954 14.54634793880886"}}, "geometry": {"type": "Point", "coordinates": [139.69014881871112, -44.893611435372726]}}, {"type": "Feature", "properties": {"norad_id": 35448, "name": "COSMOS 2251 DEB", "group": "cosmos-2251-debris", "lat": 69.01902349358795, "lon": 123.1874012522074, "alt_km": 713.1080856345616, "timestamp": "2025-12-20T16:47:36.680859+00:00", "meta": {"OBJECT_NAME": "COSMOS 2251 DEB", "OBJECT_ID": "1993-036AKS", "EPOCH": "2025-12-17T15:48:08.057376", "MEAN_MOTION": 14.54306329, "ECCENTRICITY": 0.00121573, "INCLINATION": 73.9037, "RA_OF_ASC_NODE": 80.133, "ARG_OF_PERICENTER": 263.1799, "MEAN_ANOMALY": 96.798, "EPHEMERIS_TYPE": 0, "CLASSIFICATION_TYPE": "U", "NORAD_CAT_ID": 35448, "ELEMENT_SET_NO": 999, "REV_AT_EPOCH": 87406, "BSTAR": 0.00080210225, "MEAN_MOTION_DOT": 3.379e-05, "MEAN_MOTION_DDOT": 0}, "tle": {"line1": "1 35448U 93036AKS 25351.65842659  .00003379  00000+0  80210-3 0  9991", "line2": "2 35448  73.9037  80.1330 0012157 263.1799  96.7980 14.54306329874064"}}, "geometry": {"type": "Point", "coordinates": [123.1874012522074, 69.01902349358795]}}, {"type": "Feature", "properties": {"norad_id": 35451, "name": "COSMOS 2251 DEB", "group": "cosmos-2251-debris", "lat": -72.69767809301074, "lon": 17.764354249468454, "alt_km": 447.0573445824284, "timestamp": "2025-12-20T16:47:36.680870+00:00", "meta": {"OBJECT_NAME": "COSMOS 2251 DEB", "OBJECT_ID": "1993-036AKV", "EPOCH": "2025-12-19T23:57:44.472096", "MEAN_MOTION": 15.3628162, "ECCENTRICITY": 0.0041565, "INCLINATION": 73.9333, "RA_OF_ASC_NODE": 86.979, "ARG_OF_PERICENTER": 332.0017, "MEAN_ANOMALY": 27.8952, "EPHEMERIS_TYPE": 0, "CLASSIFICATION_TYPE": "U", "NORAD_CAT_ID": 35451, "ELEMENT_SET_NO": 999, "REV_AT_EPOCH": 67517, "BSTAR": 0.0009808021, "MEAN_MOTION_DOT": 0.00035831, "MEAN_MOTION_DDOT": 0}, "tle": {"line1": "1 35451U 93036AKV 25353.99843139  .00035831  00000+0  98080-3 0  9990", "line2": "2 35451  73.9333  86.9790 0041565 332.0017  27.8952 15.36281620675177"}}, "geometry": {"type": "Point", "coordinates": [17.764354249468454, -72.69767809301074]}}, {"type": "Feature", "properties": {"norad_id": 35453, "name": "COSMOS 2251 DEB", "group": "cosmos-2251-debris", "lat": 21.25753537582422, "lon": 12.094663768724002, "alt_km": 784.8666452317284, "timestamp": "2025-12-20T16:47:36.680880+00:00", "meta": {"OBJECT_NAME": "COSMOS 2251 DEB", "OBJECT_ID": "1993-036AKX", "EPOCH": "2025-12-16T19:11:22.117056", "MEAN_MOTION": 14.38003213, "ECCENTRICITY": 0.00669431, "INCLINATION": 74.0096, "RA_OF_ASC_NODE": 12.8823, "ARG_OF_PERICENTER": 145.8531, "MEAN_ANOMALY": 214.6957, "EPHEMERIS_TYPE": 0, "CLASSIFICATION_TYPE": "U", "NORAD_CAT_ID": 35453, "ELEMENT_SET_NO": 999, "REV_AT_EPOCH": 86277, "BSTAR": 0.00051941791, "MEAN_MOTION_DOT": 1.586e-05, "MEAN_MOTION_DDOT": 0}, "tle": {"line1": "1 35453U 93036AKX 25350.79956154  .00001586  00000+0  51942-3 0  9995", "line2": "2 35453  74.0096  12.8823 0066943 145.8531 214.6957 14.38003213862776"}}, "geometry": {"type": "Point", "coordinates": [12.094663768724002, 21.25753537582422]}}, {"type": "Feature", "properties": {"norad_id": 35455, "name": "COSMOS 2251 DEB", "group": "cosmos-2251-debris", "lat": -22.671360892564095, "lon": 106.72992416632565, "alt_km": 803.0670820908672, "timestamp": "2025-12-20T16:47:36.680890+00:00", "meta": {"OBJECT_NAME": "COSMOS 2251 DEB", "OBJECT_ID": "1993-036AKZ", "EPOCH": "2025-12-19T05:04:27.934752", "MEAN_MOTION": 14.49478057, "ECCENTRICITY": 0.0099568, "INCLINATION": 74.0286, "RA_OF_ASC_NODE": 282.6521, "ARG_OF_PERICENTER": 24.6393, "MEAN_ANOMALY": 335.9475, "EPHEMERIS_TYPE": 0, "CLASSIFICATION_TYPE": "U", "NORAD_CAT_ID": 35455, "ELEMENT_SET_NO": 999, "REV_AT_EPOCH": 86637, "BSTAR": 0.0010888, "MEAN_MOTION_DOT": 4.417e-05, "MEAN_MOTION_DDOT": 0}, "tle": {"line1": "1 35455U 93036AKZ 25353.21143443  .00004417  00000+0  10888-2 0  9995", "line2": "2 35455  74.0286 282.6521 0099568  24.6393 335.9475 14.49478057866376"}}, "geometry": {"type": "Point", "coordinates": [106.72992416632565, -22.671360892564095]}}, {"type": "Feature", "properties": {"norad_id": 35456, "name": "COSMOS 2251 DEB", "group": "cosmos-2251-debris", "lat": 55.60020542064833, "lon": 126.83724375644937, "alt_km": 671.9718352622795, "timestamp": "2025-12-20T16:47:36.680899+00:00", "meta": {"OBJECT_NAME": "COSMOS 2251 DEB", "OBJECT_ID": "1993-036ALA", "EPOCH": "2025-12-16T14:29:43.540224", "MEAN_MOTION": 14.69499444, "ECCENTRICITY": 0.00664454, "INCLINATION": 73.9504, "RA_OF_ASC_NODE": 109.9489, "ARG_OF_PERICENTER": 318.8739, "MEAN_ANOMALY": 40.7432, "EPHEMERIS_TYPE": 0, "CLASSIFICATION_TYPE": "U", "NORAD_CAT_ID": 35456, "ELEMENT_SET_NO": 999, "REV_AT_EPOCH": 65932, "BSTAR": 0.0012425086, "MEAN_MOTION_DOT": 7.595e-05, "MEAN_MOTION_DDOT": 0}, "tle": {"line1": "1 35456U 93036ALA 25350.60397616  .00007595  00000+0  12425-2 0  9998", "line2": "2 35456  73.9504 109.9489 0066445 318.8739  40.7432 14.69499444659326"}}, "geometry": {"type": "Point", "coordinates": [126.83724375644937, 55.60020542064833]}}, {"type": "Feature", "properties": {"norad_id": 35459, "name": "COSMOS 2251 DEB", "group": "cosmos-2251-debris", "lat": -59.57207108072296, "lon": 22.01024167268983, "alt_km": 780.3778104883258, "timestamp": "2025-12-20T16:47:36.680910+00:00", "meta": {"OBJECT_NAME": "COSMOS 2251 DEB", "OBJECT_ID": "1993-036ALD", "EPOCH": "2025-12-20T05:38:34.126080", "MEAN_MOTION": 14.37472303, "ECCENTRICITY": 0.0016072, "INCLINATION": 73.869, "RA_OF_ASC_NODE": 173.3531, "ARG_OF_PERICENTER": 118.6909, "MEAN_ANOMALY": 241.5862, "EPHEMERIS_TYPE": 0, "CLASSIFICATION_TYPE": "U", "NORAD_CAT_ID": 35459, "ELEMENT_SET_NO": 999, "REV_AT_EPOCH": 58469, "BSTAR": 0.00018325, "MEAN_MOTION_DOT": 5.22e-06, "MEAN_MOTION_DDOT": 0}, "tle": {"line1": "1 35459U 93036ALD 25354.23511720  .00000522  00000+0  18325-3 0  9997", "line2": "2 35459  73.8690 173.3531 0016072 118.6909 241.5862 14.37472303584698"}}, "geometry": {"type": "Point", "coordinates": [22.01024167268983, -59.57207108072296]}}, {"type": "Feature", "properties": {"norad_id": 35462, "name": "COSMOS 2251 DEB", "group": "cosmos-2251-debris", "lat": 68.17509062404714, "lon": -60.151607670192455, "alt_km": 839.1096777533976, "timestamp": "2025-12-20T16:47:36.680935+00:00", "meta": {"OBJECT_NAME": "COSMOS 2251 DEB", "OBJECT_ID": "1993-036ALG", "EPOCH": "2025-12-19T10:12:24.458112", "MEAN_MOTION": 14.29342636, "ECCENTRICITY": 0.0086733, "INCLINATION": 74.0371, "RA_OF_ASC_NODE": 256.5417, "ARG_OF_PERICENTER": 290.2864, "MEAN_ANOMALY": 68.8979, "EPHEMERIS_TYPE": 0, "CLASSIFICATION_TYPE": "U", "NORAD_CAT_ID": 35462, "ELEMENT_SET_NO": 999, "REV_AT_EPOCH": 66476, "BSTAR": 0.0010032, "MEAN_MOTION_DOT": 2.635e-05, "MEAN_MOTION_DDOT": 0}, "tle": {"line1": "1 35462U 93036ALG 25353.42528308  .00002635  00000+0  10032-2 0  9994", "line2": "2 35462  74.0371 256.5417 0086733 290.2864  68.8979 14.29342636664768"}}, "geometry": {"type": "Point", "coordinates": [-60.151607670192455, 68.17509062404714]}}, {"type": "Feature", "properties": {"norad_id": 35465, "name": "COSMOS 2251 DEB", "group": "cosmos-2251-debris", "lat": -21.710269423072226, "lon": 8.742999321766135, "alt_km": 783.121028365058, "timestamp": "2025-12-20T16:47:36.680946+00:00", "meta": {"OBJECT_NAME": "COSMOS 2251 DEB", "OBJECT_ID": "1993-036ALK", "EPOCH": "2025-12-17T13:03:02.562624", "MEAN_MOTION": 14.44331537, "ECCENTRICITY": 0.00642719, "INCLINATION": 73.9967, "RA_OF_ASC_NODE": 188.0661, "ARG_OF_PERICENTER": 347.2721, "MEAN_ANOMALY": 12.6809, "EPHEMERIS_TYPE": 0, "CLASSIFICATION_TYPE": "U", "NORAD_CAT_ID": 35465, "ELEMENT_SET_NO": 999, "REV_AT_EPOCH": 87311, "BSTAR": 0.00028334394, "MEAN_MOTION_DOT": 9.72e-06, "MEAN_MOTION_DDOT": 0}, "tle": {"line1": "1 35465U 93036ALK 25351.54377966  .00000972  00000+0  28334-3 0  9997", "line2": "2 35465  73.9967 188.0661 0064271 347.2721  12.6809 14.44331537873113"}}, "geometry": {"type": "Point", "coordinates": [8.742999321766135, -21.710269423072226]}}]}